    CK17U070  2019 09 14.3291  6.424507  1.000534  326.3376  276.2459  142.5933  20211005   8.3  2.0  C/2017 U7 (PANSTARRS)                                    MPEC 2021-S45
    CK17W020  2017 10 31.9059  3.949190  0.710467  168.9713  312.8397   98.1994  20211005  11.0  4.0  C/2017 W2 (Leonard)                                      MPC114600
    PK17W030  2018 02 28.3068  3.865685  0.506928  327.8452  210.2590   18.1667  20211005  10.5  4.0  P/2017 W3 (Gibbs)                                        MPC114601
    CK17X010  2018 06 14.7631  4.669312  0.850394  283.2556  251.1338   31.3116  20211005  10.0  4.0  C/2017 X1 (PANSTARRS)                                    MPEC 2021-R75
    CK17Y010  2017 08 31.2990  3.707760  0.997882  134.2678  307.5246   55.2642  20211005  11.5  4.0  C/2017 Y1 (PANSTARRS)                                    MPC117069
    CK17Y020  2020 11  4.8616  4.632561  1.000795  147.9087   65.9946  128.4149  20211005  15.0  4.0  C/2017 Y2 (PANSTARRS)                                    MPEC 2021-R75
    PK17Y030  2018 02 10.1377  1.280388  0.869878   67.6143  153.8405   27.5562  20211005  16.5  4.0  P/2017 Y3 (Leonard)                                      MPC111770
    CK18A010  2017 10 20.7641  2.411411  0.903910   96.2209  336.6618   53.6156  20211005  12.5  4.0  C/2018 A1 (PANSTARRS)                                    MPC114601
    CK18A030  2019 01 12.2397  3.275666  0.992347   86.3701  194.2929  139.5370  20211005   8.5  4.0  C/2018 A3 (ATLAS)                                        MPEC 2021-P47
    CK18A040  2018 05 18.5720  2.396698  0.803396  355.9969   97.6174    3.1488  20211005  14.0  4.0  C/2018 A4 (PANSTARRS)                                    MPC114601
    PK18A050  2017 09 23.0513  2.689327  0.522535  359.5246   87.8132   23.5873  20211005  15.0  4.0  P/2018 A5 (PANSTARRS)                                    MPC109147
    CK18A060  2019 07 13.3237  3.018478  0.801320  264.4748  340.3792   77.0480  20211005   9.0  4.0  C/2018 A6 (Gibbs)                                        MPEC 2021-S45
    CK18B010  2018 03 28.8939  5.119430  1.000022   68.3241  133.1909  162.4200  20211005   9.0  4.0  C/2018 B1 (Lemmon)                                       MPC118841
    PK18C010  2018 02 24.7868  2.643717  0.532424  235.7093  270.3653    5.1165  20211005  13.5  4.0  P/2018 C1 (Lemmon-Read)                                  MPC114601
    CK18C020  2018 06  1.2841  1.959743  1.000503  134.1024   91.1695   34.4612  20211005  13.0  4.0  C/2018 C2 (Lemmon)                                       MPC114601
    CK18D04O  2019 08 17.7529  2.411360  0.905595  176.2249  251.3359  160.4586  20211005  11.0  4.0  C/2018 DO4 (Lemmon)                                      MPEC 2021-P47
    CK18E010  2018 04 17.4994  2.698800  0.949912  299.3507  146.8692   72.5174  20211005  10.5  4.0  C/2018 E1 (ATLAS)                                        MPC114602
    CK18E020  2017 12 24.0327  3.919009  0.999001  277.4537   67.1834   97.6790  20211005  10.5  4.0  C/2018 E2 (Barros)                                       MPC114602
    CK18E04N  2018 06  5.7926  1.455403  0.919834   35.0563  136.1316   81.8136  20211005  15.0  4.0  C/2018 EN4 (NEOWISE)                                     MPC114602
    CK18E09F  2018 05 22.3886  1.558694  0.996952   72.6214  172.5559   84.6207  20211005  18.0  2.0  C/2018 EF9 (Lemmon)                                      MPC114602
    CK18F010  2018 12 13.3293  2.995239  0.988781   71.6225  177.2755   46.0762  20211005  11.5  4.0  C/2018 F1 (Grauer)                                       MPEC 2021-R75
    CK18F030  2017 08 15.2313  2.483172  1.000000  293.0113  173.0311  105.5348            13.0  4.0  C/2018 F3 (Johnson)                                      MPC110084
    CK18F040  2019 12  4.0361  3.441164  1.000996  263.2317   26.5154   78.0877  20211005  11.0  6.0  C/2018 F4 (PANSTARRS)                                    MPEC 2021-S45
    PK18H020  2018 01 22.0153  2.016967  0.540506  119.9444   68.3268    7.3903  20211005  16.6  2.0  P/2018 H2 (PANSTARRS)                                    MPC114602
    CK18K010  2018 04  6.9881  1.883132  0.937388  325.1493  260.0810  164.1943  20211005  14.9  4.0  C/2018 K1 (Weiland)                                      MPC114602
    CK18K03J  2019 09  9.8346  3.630086  0.996051  217.6744   91.6147  136.7023  20211005  12.2  2.0  C/2018 KJ3 (Lemmon)                                      MPEC 2021-R75
    PK18L010  2018 11 12.5259  1.889516  0.482584   18.0137  268.6315   10.5888  20211005  15.0  4.0  P/2018 L1 (PANSTARRS)                                    MPC114602
    CK18L020  2018 12  2.6742  1.713582  0.993460   56.2920  243.0201   67.3485  20211005  10.0  4.0  C/2018 L2 (ATLAS)                                        MPEC 2021-P47
    PK18L040  2018 07 31.7340  1.681034  0.659884  140.6019  145.1507   26.6257  20211005  17.5  4.0  P/2018 L4 (PANSTARRS)                                    MPC114603
    PK18L050  2018 05  5.3939  2.305029  0.364694   93.8723  219.0941    2.2081  20211005  14.5  4.0  P/2018 L5 (Leonard)                                      MPC119996
    CK18M010  2018 07 10.5373  1.302642  0.939148   14.1860  339.4082   37.3024  20211005  15.5  4.0  C/2018 M1 (Catalina)                                     MPC117070
    CK18N010  2018 08  2.0932  1.310826  0.996432  354.6703  292.4625  159.4388  20211005  15.5  4.0  C/2018 N1 (NEOWISE)                                      MPC112393
    CK18N020  2019 11 11.0159  3.125179  1.000253   24.4176   25.2282   77.5352  20211005   6.0  4.0  C/2018 N2 (ASASSN)                                       MPEC 2021-S45
    CK18O010  2018 08 31.7686  1.560950  0.944247  162.6366   87.6812  154.0307  20211005  17.0  4.0  C/2018 O1 (ATLAS)                                        MPC114603
    PK18P030  2023 12 26.4630  1.752860  0.416791  305.9021   59.1696    8.9107  20211005  14.5  4.0  P/2018 P3 (PANSTARRS)                                    MPC114603
    PK18P040  2018 11  8.3868  3.667686  0.450621    8.2847  353.0636   23.1092  20211005  12.0  4.0  P/2018 P4 (PANSTARRS)                                    MPC114603
    CK18P050  2019 02 27.4876  4.579465  0.642718  131.7954  216.2294    7.2505  20211005  11.0  4.0  C/2018 P5 (PANSTARRS)                                    MPEC 2021-P47
    CK18R030  2019 06  7.3440  1.287571  0.999187  112.7943  324.6431   69.7302  20211005   9.5  4.0  C/2018 R3 (Lemmon)                                       MPC118841
    CK18R040  2018 03  3.4619  1.716891  0.994896  345.3123  298.4549   11.6815  20211005  14.0  4.0  C/2018 R4 (Fuls)                                         MPC112393
    CK18R050  2019 01 10.0436  3.625426  0.841017  178.0872  171.1165  103.7491  20211005  11.5  4.0  C/2018 R5 (Lemmon)                                       MPC114603
    CK18U010  2021 11  3.0638  4.992958  1.001353  180.4621   75.4803  108.2979  20211005   5.0  4.0  C/2018 U1 (Lemmon)                                       MPEC 2021-S45
    CK18V010  2018 12  3.0708  0.387365  1.000330   88.8851  128.8927  144.0572  20211005  12.0  4.0  C/2018 V1 (Machholz-Fujikawa-Iwamoto)                    MPC114604
    CK18V020  2018 11 25.9719  2.478504  0.901074  318.9428  357.0829  159.1677  20211005  15.0  4.0  C/2018 V2 (ATLAS)                                        MPC115884
    PK18V02N  2018 06  6.1547  2.118565  0.478739  138.7704  226.4884   18.2531  20211005  15.0  4.0  P/2018 VN2 (Leonard)                                     MPC114604
    AK18V030  2019 09  8.7276  1.341263  0.989170    3.5534  308.6588  164.9774  20211005  15.7  2.0  A/2018 V3                                                MPEC 2021-P47
    CK18V040  2019 03  1.3662  3.195935  0.984325  359.9265   78.3440   69.0069  20211005  12.5  4.0  C/2018 V4 (Africano)                                     MPC114604
    PK18V050  2018 10  2.7808  4.702325  0.474853  260.6615  171.2867   10.5878  20211005  12.5  4.0  P/2018 V5 (Trujillo-Sheppard)                            MPEC 2021-P47
    CK18W010  2019 05 11.6502  1.360605  0.937244  251.2409  233.6088   83.2968  20211005  15.5  2.0  C/2018 W1 (Catalina)                                     MPEC 2021-P47
    CK18W020  2019 09  5.5411  1.456229  1.000392  157.9873  181.8308  116.6215  20211005   9.5  4.0  C/2018 W2 (Africano)                                     MPEC 2021-P47
    CK18X020  2019 07  8.2686  2.125865  0.985239  162.0246  340.8329   23.0692  20211005  12.0  4.0  C/2018 X2 (Fitzsimmons)                                  MPC119996
    CK18X030  2018 12 30.5985  2.694478  0.782180  359.7348   78.8861   43.3782  20211005  14.5  4.0  C/2018 X3 (PANSTARRS)                                    MPC114604
    CK18Y010  2019 02  6.8610  1.284088  0.990669  357.9912  147.5153  160.3985  20211005  11.5  4.0  C/2018 Y1 (Iwamoto)                                      MPC118842
    PK18Y020  2019 01  1.4654  3.888069  0.478655  162.2946  297.2572   11.6824  20211005  11.5  4.0  P/2018 Y2 (Africano)                                     MPC114605
    PK19A010  2018 10 10.5471  2.209971  0.568407  150.7469  312.3005   13.7444  20211005  16.0  4.0  P/2019 A1 (PANSTARRS)                                    MPC114605
    PK19A020  2018 11 20.1686  3.537868  0.381416  323.9645  139.4717   14.8600  20211005  10.5  4.0  P/2019 A2 (ATLAS)                                        MPEC 2021-P47
    PK19A030  2024 03  2.2527  2.309854  0.265838  325.5305   31.2933   15.3710  20211005  16.0  4.0  P/2019 A3 (PANSTARRS)                                    MPEC 2021-P47
    PK19A040  2023 02 27.8377  2.387410  0.087488  342.0660  119.2886   13.3117  20211005  15.0  4.0  P/2019 A4 (PANSTARRS)                                    MPC114605
    CK19A050  2019 06  7.9488  6.320892  0.706682  355.9182  146.6288   67.5600  20211005   9.5  4.0  C/2019 A5 (PANSTARRS)                                    MPEC 2021-P47
